start=new Date('2023-05-06T00:00:00.000Z').valueOf();
sats=[{"TIME_SYSTEM":"UTC","ARG_OF_PERICENTER":"97.2333","INCLINATION":"53.0536","OBJECT_TYPE":"PAYLOAD","MEAN_ELEMENT_THEORY":"SGP4","REV_AT_EPOCH":"12167","MEAN_MOTION":"15.06395293","TLE_LINE2":"2 47732  53.0536 111.2925 0001400  97.2333 262.8815 15.06395293121672","TLE_LINE1":"1 47732U 21017L   23125.64791118  .00000227  00000-0  34140-4 0  9991","ECCENTRICITY":"0.00014000","BSTAR":"0.00003414000000","SITE":"AFETR","MEAN_MOTION_DOT":"0.00000227","MEAN_MOTION_DDOT":"0.0000000000000","EPOCH":"2023-05-05T15:32:59.525952","FILE":"3901833","SEMIMAJOR_AXIS":"6925.363","RCS_SIZE":"LARGE","PERIOD":"95.592","GP_ID":"231291852","PERIAPSIS":"546.258","LAUNCH_DATE":"2021-03-04","REF_FRAME":"TEME","DECAY_DATE":null,"OBJECT_NAME":"STARLINK-2142","COUNTRY_CODE":"US","RA_OF_ASC_NODE":"111.2925","ELEMENT_SET_NO":"999","OBJECT_ID":"2021-017L","NORAD_CAT_ID":"47732","MEAN_ANOMALY":"262.8815","CLASSIFICATION_TYPE":"U","APOAPSIS":"548.198","CENTER_NAME":"EARTH","EPHEMERIS_TYPE":"0"},{"CENTER_NAME":"EARTH","EPHEMERIS_TYPE":"0","CLASSIFICATION_TYPE":"U","MEAN_ANOMALY":"250.6272","OBJECT_ID":"2021-017M","NORAD_CAT_ID":"47733","APOAPSIS":"548.118","ELEMENT_SET_NO":"999","RA_OF_ASC_NODE":"206.5871","OBJECT_NAME":"STARLINK-2143","COUNTRY_CODE":"US","REF_FRAME":"TEME","LAUNCH_DATE":"2021-03-04","DECAY_DATE":null,"PERIAPSIS":"546.077","PERIOD":"95.590","GP_ID":"231285931","MEAN_MOTION_DDOT":"0.0000000000000","EPOCH":"2023-05-05T12:43:45.211296","SITE":"AFETR","MEAN_MOTION_DOT":"0.00018380","BSTAR":"0.00124830000000","RCS_SIZE":"LARGE","FILE":"3901589","SEMIMAJOR_AXIS":"6925.232","TLE_LINE1":"1 47733U 21017M   23125.53038439  .00018380  00000-0  12483-2 0  9993","TLE_LINE2":"2 47733  53.0549 206.5871 0001473 109.4877 250.6272 15.06437887120334","MEAN_MOTION":"15.06437887","ECCENTRICITY":"0.00014730","MEAN_ELEMENT_THEORY":"SGP4","REV_AT_EPOCH":"12033","INCLINATION":"53.0549","OBJECT_TYPE":"PAYLOAD","ARG_OF_PERICENTER":"109.4877","TIME_SYSTEM":"UTC"},{"REV_AT_EPOCH":"12047","MEAN_ELEMENT_THEORY":"SGP4","INCLINATION":"53.0533","OBJECT_TYPE":"PAYLOAD","TIME_SYSTEM":"UTC","ARG_OF_PERICENTER":"61.2394","PERIOD":"95.591","GP_ID":"231291861","BSTAR":"0.00140300000000","SITE":"AFETR","MEAN_MOTION_DOT":"0.00020692","EPOCH":"2023-05-05T13:11:37.406400","MEAN_MOTION_DDOT":"0.0000000000000","FILE":"3901833","RCS_SIZE":"LARGE","SEMIMAJOR_AXIS":"6925.274","TLE_LINE1":"1 47734U 21017N   23125.54973850  .00020692  00000-0  14030-2 0  9999","TLE_LINE2":"2 47734  53.0533 196.4958 0001410  61.2394 298.8736 15.06424489120479","MEAN_MOTION":"15.06424489","ECCENTRICITY":"0.00014100","OBJECT_NAME":"STARLINK-2144","COUNTRY_CODE":"US","LAUNCH_DATE":"2021-03-04","REF_FRAME":"TEME","DECAY_DATE":null,"PERIAPSIS":"546.162","CENTER_NAME":"EARTH","EPHEMERIS_TYPE":"0","OBJECT_ID":"2021-017N","NORAD_CAT_ID":"47734","CLASSIFICATION_TYPE":"U","MEAN_ANOMALY":"298.8736","APOAPSIS":"548.115","ELEMENT_SET_NO":"999","RA_OF_ASC_NODE":"196.4958"},{"REF_FRAME":"TEME","LAUNCH_DATE":"2021-03-04","DECAY_DATE":null,"OBJECT_NAME":"STARLINK-2146","COUNTRY_CODE":"US","PERIAPSIS":"546.330","MEAN_ANOMALY":"265.9135","CLASSIFICATION_TYPE":"U","NORAD_CAT_ID":"47735","OBJECT_ID":"2021-017P","APOAPSIS":"548.097","CENTER_NAME":"EARTH","EPHEMERIS_TYPE":"0","ELEMENT_SET_NO":"999","RA_OF_ASC_NODE":"120.9883","INCLINATION":"53.0525","OBJECT_TYPE":"PAYLOAD","MEAN_ELEMENT_THEORY":"SGP4","REV_AT_EPOCH":"12154","ARG_OF_PERICENTER":"94.1999","TIME_SYSTEM":"UTC","PERIOD":"95.592","GP_ID":"231291468","MEAN_MOTION":"15.06400070","TLE_LINE2":"2 47735  53.0525 120.9883 0001276  94.1999 265.9135 15.06400070121543","TLE_LINE1":"1 47735U 21017P   23125.69858071  .00001508  00000-0  12010-3 0  9995","ECCENTRICITY":"0.00012760","MEAN_MOTION_DDOT":"0.0000000000000","EPOCH":"2023-05-05T16:45:57.373344","SITE":"AFETR","BSTAR":"0.00012010000000","MEAN_MOTION_DOT":"0.00001508","FILE":"3901834","RCS_SIZE":"LARGE","SEMIMAJOR_AXIS":"6925.348"},{"APOAPSIS":"548.004","MEAN_ANOMALY":"260.3356","CLASSIFICATION_TYPE":"U","OBJECT_ID":"2021-017Q","NORAD_CAT_ID":"47736","EPHEMERIS_TYPE":"0","CENTER_NAME":"EARTH","ELEMENT_SET_NO":"999","RA_OF_ASC_NODE":"186.9361","DECAY_DATE":null,"REF_FRAME":"TEME","LAUNCH_DATE":"2021-03-04","COUNTRY_CODE":"US","OBJECT_NAME":"STARLINK-2147","PERIAPSIS":"546.343","GP_ID":"231285933","PERIOD":"95.591","ECCENTRICITY":"0.00011990","TLE_LINE2":"2 47736  53.0528 186.9361 0001199  99.7768 260.3356 15.06413086120600","TLE_LINE1":"1 47736U 21017Q   23125.45113866  .00014689  00000-0  10026-2 0  9994","MEAN_MOTION":"15.06413086","FILE":"3901589","RCS_SIZE":"LARGE","SEMIMAJOR_AXIS":"6925.308","MEAN_MOTION_DDOT":"0.0000000000000","EPOCH":"2023-05-05T10:49:38.380224","MEAN_MOTION_DOT":"0.00014689","SITE":"AFETR","BSTAR":"0.00100260000000","OBJECT_TYPE":"PAYLOAD","INCLINATION":"53.0528","REV_AT_EPOCH":"12060","MEAN_ELEMENT_THEORY":"SGP4","ARG_OF_PERICENTER":"99.7768","TIME_SYSTEM":"UTC"},{"CENTER_NAME":"EARTH","EPHEMERIS_TYPE":"0","OBJECT_ID":"2021-017R","NORAD_CAT_ID":"47737","CLASSIFICATION_TYPE":"U","MEAN_ANOMALY":"269.4499","APOAPSIS":"459.595","ELEMENT_SET_NO":"999","RA_OF_ASC_NODE":"47.4717","OBJECT_NAME":"STARLINK-2148","COUNTRY_CODE":"US","LAUNCH_DATE":"2021-03-04","REF_FRAME":"TEME","DECAY_DATE":null,"PERIAPSIS":"457.825","PERIOD":"93.766","GP_ID":"231205091","SITE":"AFETR","BSTAR":"0.00004315200000","MEAN_MOTION_DOT":"0.00001140","MEAN_MOTION_DDOT":"0.0000000000000","EPOCH":"2023-05-04T04:57:24.437376","FILE":"3900386","SEMIMAJOR_AXIS":"6836.845","RCS_SIZE":"LARGE","MEAN_MOTION":"15.35745126","TLE_LINE2":"2 47737  53.0552  47.4717 0001294  90.6651 269.4499 15.35745126122460","TLE_LINE1":"1 47737U 21017R   23124.20653284  .00001140  00000-0  43152-4 0  9996","ECCENTRICITY":"0.00012940","MEAN_ELEMENT_THEORY":"SGP4","REV_AT_EPOCH":"12246","INCLINATION":"53.0552","OBJECT_TYPE":"PAYLOAD","TIME_SYSTEM":"UTC","ARG_OF_PERICENTER":"90.6651"},{"REV_AT_EPOCH":"12061","MEAN_ELEMENT_THEORY":"SGP4","INCLINATION":"53.0531","OBJECT_TYPE":"PAYLOAD","TIME_SYSTEM":"UTC","ARG_OF_PERICENTER":"65.5771","PERIOD":"95.592","GP_ID":"231291466","BSTAR":"0.00095381000000","SITE":"AFETR","MEAN_MOTION_DOT":"0.00013957","MEAN_MOTION_DDOT":"0.0000000000000","EPOCH":"2023-05-05T13:23:36.659616","FILE":"3901834","SEMIMAJOR_AXIS":"6925.328","RCS_SIZE":"LARGE","TLE_LINE1":"1 47738U 21017S   23125.55806319  .00013957  00000-0  95381-3 0  9994","TLE_LINE2":"2 47738  53.0531 186.7323 0000963  65.5771 294.5319 15.06406731120613","MEAN_MOTION":"15.06406731","ECCENTRICITY":"0.00009630","OBJECT_NAME":"STARLINK-2149","COUNTRY_CODE":"US","LAUNCH_DATE":"2021-03-04","REF_FRAME":"TEME","DECAY_DATE":null,"PERIAPSIS":"546.526","CENTER_NAME":"EARTH","EPHEMERIS_TYPE":"0","NORAD_CAT_ID":"47738","OBJECT_ID":"2021-017S","CLASSIFICATION_TYPE":"U","MEAN_ANOMALY":"294.5319","APOAPSIS":"547.860","RA_OF_ASC_NODE":"186.7323","ELEMENT_SET_NO":"999"},{"APOAPSIS":"548.319","NORAD_CAT_ID":"47739","OBJECT_ID":"2021-017T","MEAN_ANOMALY":"288.5566","CLASSIFICATION_TYPE":"U","EPHEMERIS_TYPE":"0","CENTER_NAME":"EARTH","ELEMENT_SET_NO":"999","RA_OF_ASC_NODE":"215.5296","DECAY_DATE":null,"LAUNCH_DATE":"2021-03-04","REF_FRAME":"TEME","COUNTRY_CODE":"US","OBJECT_NAME":"STARLINK-2150","PERIAPSIS":"546.203","GP_ID":"231271175","PERIOD":"95.593","ECCENTRICITY":"0.00015280","TLE_LINE2":"2 47739  53.0531 215.5296 0001528  71.5589 288.5566 15.06384587120819","MEAN_MOTION":"15.06384587","TLE_LINE1":"1 47739U 21017T   23124.65083630  .00028328  00000-0  19138-2 0  9991","RCS_SIZE":"LARGE","FILE":"3901186","SEMIMAJOR_AXIS":"6925.396","BSTAR":"0.00191380000000","SITE":"AFETR","MEAN_MOTION_DOT":"0.00028328","EPOCH":"2023-05-04T15:37:12.256320","MEAN_MOTION_DDOT":"0.0000000000000","OBJECT_TYPE":"PAYLOAD","INCLINATION":"53.0531","REV_AT_EPOCH":"12081","MEAN_ELEMENT_THEORY":"SGP4","TIME_SYSTEM":"UTC","ARG_OF_PERICENTER":"71.5589"},{"PERIAPSIS":"546.275","OBJECT_NAME":"STARLINK-2152","COUNTRY_CODE":"US","REF_FRAME":"TEME","LAUNCH_DATE":"2021-03-04","DECAY_DATE":null,"ELEMENT_SET_NO":"999","RA_OF_ASC_NODE":"199.4248","CENTER_NAME":"EARTH","EPHEMERIS_TYPE":"0","MEAN_ANOMALY":"299.5402","CLASSIFICATION_TYPE":"U","OBJECT_ID":"2021-017U","NORAD_CAT_ID":"47740","APOAPSIS":"548.160","ARG_OF_PERICENTER":"60.5723","TIME_SYSTEM":"UTC","REV_AT_EPOCH":"12105","MEAN_ELEMENT_THEORY":"SGP4","INCLINATION":"53.0537","OBJECT_TYPE":"PAYLOAD","MEAN_MOTION_DDOT":"0.0000000000000","EPOCH":"2023-05-04T21:32:09.559968","BSTAR":"0.00106580000000","SITE":"AFETR","MEAN_MOTION_DOT":"0.00015629","FILE":"3901186","RCS_SIZE":"LARGE","SEMIMAJOR_AXIS":"6925.353","TLE_LINE2":"2 47740  53.0537 199.4248 0001361  60.5723 299.5402 15.06398704121051","MEAN_MOTION":"15.06398704","TLE_LINE1":"1 47740U 21017U   23124.89733287  .00015629  00000-0  10658-2 0  9997","ECCENTRICITY":"0.00013610","PERIOD":"95.592","GP_ID":"231271426"},{"PERIOD":"95.591","GP_ID":"231291482","SITE":"AFETR","MEAN_MOTION_DOT":"0.00014619","BSTAR":"0.00099763000000","EPOCH":"2023-05-05T13:48:46.675872","MEAN_MOTION_DDOT":"0.0000000000000","FILE":"3901835","RCS_SIZE":"LARGE","SEMIMAJOR_AXIS":"6925.277","MEAN_MOTION":"15.06423278","TLE_LINE2":"2 47741  53.0537 196.3833 0000937  64.8132 295.2954 15.06423278120483","TLE_LINE1":"1 47741U 21017V   23125.57554023  .00014619  00000-0  99763-3 0  9996","ECCENTRICITY":"0.00009370","REV_AT_EPOCH":"12048","MEAN_ELEMENT_THEORY":"SGP4","INCLINATION":"53.0537","OBJECT_TYPE":"PAYLOAD","TIME_SYSTEM":"UTC","ARG_OF_PERICENTER":"64.8132","CENTER_NAME":"EARTH","EPHEMERIS_TYPE":"0","OBJECT_ID":"2021-017V","NORAD_CAT_ID":"47741","CLASSIFICATION_TYPE":"U","MEAN_ANOMALY":"295.2954","APOAPSIS":"547.791","ELEMENT_SET_NO":"999","RA_OF_ASC_NODE":"196.3833","OBJECT_NAME":"STARLINK-2154","COUNTRY_CODE":"US","LAUNCH_DATE":"2021-03-04","REF_FRAME":"TEME","DECAY_DATE":null,"PERIAPSIS":"546.493"}];
